IRIDIUM 106             
1 41917U 17003A   25098.71669064 -.00000020  00000+0 -14065-4 0  9999
2 41917  86.3912 270.0486 0001574 101.1708 258.9664 14.34217416430937
IRIDIUM 103             
1 41918U 17003B   25098.91331078  .00000002  00000+0 -62505-5 0  9995
2 41918  86.3912 269.8672 0001798  73.8056 286.3337 14.34217727430982
IRIDIUM 109             
1 41919U 17003C   25098.91965507  .00000222  00000+0  72354-4 0  9991
2 41919  86.3916 269.9167 0002220  86.5045 273.6404 14.34216222430957
IRIDIUM 102             
1 41920U 17003D   25098.88794173 -.00000020  00000+0 -14215-4 0  9998
2 41920  86.3913 269.8629 0002112  95.5743 264.5694 14.34217528431033
IRIDIUM 105             
1 41921U 17003E   25098.78888710  .00000694  00000+0  24070-3 0  9993
2 41921  86.3970 238.3282 0002021  89.2302 270.9125 14.34221540432875
IRIDIUM 104             
1 41922U 17003F   25098.90062668 -.00000018  00000+0 -13607-4 0  9991
2 41922  86.3914 269.8937 0002202  79.9003 280.2441 14.34217645431027
IRIDIUM 114             
1 41923U 17003G   25098.90696890 -.00000007  00000+0 -94731-5 0  9998
2 41923  86.3912 269.8757 0001832  86.2362 273.9043 14.34217560431004
IRIDIUM 108             
1 41924U 17003H   25098.65618631  .00000471  00000+0  16114-3 0  9998
2 41924  86.3966 238.2895 0002000 101.0884 259.0536 14.34216656432828
